{"type": "FeatureCollection", "features": [ {"type": "Feature", "properties": {"norad_id": 33867, "name": "IRIDIUM 33 DEB", "group": "iridium-33-debris", "lat": 45.068094640964624, "lon": -2.357546853994342, "alt_km": 388.9187121605055, "timestamp": "2025-12-05T04:52:15.675461+00:00", "meta": {"OBJECT_NAME": "IRIDIUM 33 DEB", "OBJECT_ID": "1997-051AL", "EPOCH": "2025-12-04T13:14:30.177024", "MEAN_MOTION": 15.55427003, "ECCENTRICITY": 0.001226, "INCLINATION": 86.3624, "RA_OF_ASC_NODE": 354.3184, "ARG_OF_PERICENTER": 96.5296, "MEAN_ANOMALY": 263.7362, "EPHEMERIS_TYPE": 0, "CLASSIFICATION_TYPE": "U", "NORAD_CAT_ID": 33867, "ELEMENT_SET_NO": 999, "REV_AT_EPOCH": 89383, "BSTAR": 0.010802, "MEAN_MOTION_DOT": 0.0080017, "MEAN_MOTION_DDOT": 0}, "tle": {"line1": "1 33867U 97051AL  25338.55173816  .00800170  00000+0  10802-1 0  9993", "line2": "2 33867  86.3624 354.3184 0012260  96.5296 263.7362 15.55427003893836"}}, "geometry": {"type": "Point", "coordinates": [-2.357546853994342, 45.068094640964624]}}, {"type": "Feature", "properties": {"norad_id": 33870, "name": "IRIDIUM 33 DEB", "group": "iridium-33-debris", "lat": 2.7050542432280897, "lon": 61.663066803645464, "alt_km": 755.8924906439279, "timestamp": "2025-12-05T04:52:15.675471+00:00", "meta": {"OBJECT_NAME": "IRIDIUM 33 DEB", "OBJECT_ID": "1997-051AP", "EPOCH": "2025-12-04T12:31:35.253120", "MEAN_MOTION": 14.45780101, "ECCENTRICITY": 0.0020597, "INCLINATION": 86.3758, "RA_OF_ASC_NODE": 61.7832, "ARG_OF_PERICENTER": 205.3349, "MEAN_ANOMALY": 215.0687, "EPHEMERIS_TYPE": 0, "CLASSIFICATION_TYPE": "U", "NORAD_CAT_ID": 33870, "ELEMENT_SET_NO": 999, "REV_AT_EPOCH": 88018, "BSTAR": 0.0020187, "MEAN_MOTION_DOT": 7.196e-05, "MEAN_MOTION_DDOT": 0}, "tle": {"line1": "1 33870U 97051AP  25338.52193580  .00007196  00000+0  20187-2 0  9999", "line2": "2 33870  86.3758  61.7832 0020597 205.3349 215.0687 14.45780101880181"}}, "geometry": {"type": "Point", "coordinates": [61.663066803645464, 2.7050542432280897]}}, {"type": "Feature", "properties": {"norad_id": 33881, "name": "IRIDIUM 33 DEB", "group": "iridium-33-debris", "lat": -56.644765447762516, "lon": 104.50741783637847, "alt_km": 722.4393737582077, "timestamp": "2025-12-05T04:52:15.675480+00:00", "meta": {"OBJECT_NAME": "IRIDIUM 33 DEB", "OBJECT_ID": "1997-051BA", "EPOCH": "2025-12-04T15:59:51.159840", "MEAN_MOTION": 14.56341841, "ECCENTRICITY": 0.0061193, "INCLINATION": 86.3867, "RA_OF_ASC_NODE": 110.249, "ARG_OF_PERICENTER": 200.9329, "MEAN_ANOMALY": 171.205, "EPHEMERIS_TYPE": 0, "CLASSIFICATION_TYPE": "U", "NORAD_CAT_ID": 33881, "ELEMENT_SET_NO": 999, "REV_AT_EPOCH": 87383, "BSTAR": 0.004493, "MEAN_MOTION_DOT": 0.00020483, "MEAN_MOTION_DDOT": 0}, "tle": {"line1": "1 33881U 97051BA  25338.66656435  .00020483  00000+0  44930-2 0  9995", "line2": "2 33881  86.3867 110.2490 0061193 200.9329 171.2050 14.56341841873837"}}, "geometry": {"type": "Point", "coordinates": [104.50741783637847, -56.644765447762516]}}, {"type": "Feature", "properties": {"norad_id": 33884, "name": "IRIDIUM 33 DEB", "group": "iridium-33-debris", "lat": 44.22646667892452, "lon": 16.763705542969053, "alt_km": 629.979938770246, "timestamp": "2025-12-05T04:52:15.675490+00:00", "meta": {"OBJECT_NAME": "IRIDIUM 33 DEB", "OBJECT_ID": "1997-051BD", "EPOCH": "2025-12-04T02:54:00.284832", "MEAN_MOTION": 14.77168398, "ECCENTRICITY": 0.00106133, "INCLINATION": 86.3697, "RA_OF_ASC_NODE": 13.7089, "ARG_OF_PERICENTER": 355.5376, "MEAN_ANOMALY": 57.9595, "EPHEMERIS_TYPE": 0, "CLASSIFICATION_TYPE": "U", "NORAD_CAT_ID": 33884, "ELEMENT_SET_NO": 999, "REV_AT_EPOCH": 88720, "BSTAR": 0.0029953103, "MEAN_MOTION_DOT": 0.00021274, "MEAN_MOTION_DDOT": 0}, "tle": {"line1": "1 33884U 97051BD  25338.12083663  .00021274  00000+0  29953-2 0  9993", "line2": "2 33884  86.3697  13.7089 0010613 355.5376  57.9595 14.77168398887209"}}, "geometry": {"type": "Point", "coordinates": [16.763705542969053, 44.22646667892452]}}, {"type": "Feature", "properties": {"norad_id": 33886, "name": "IRIDIUM 33 DEB", "group": "iridium-33-debris", "lat": 8.207782210903988, "lon": 70.92339907160364, "alt_km": 774.6340633094951, "timestamp": "2025-12-05T04:52:15.675499+00:00", "meta": {"OBJECT_NAME": "IRIDIUM 33 DEB", "OBJECT_ID": "1997-051BF", "EPOCH": "2025-12-04T16:01:07.165920", "MEAN_MOTION": 14.3603684, "ECCENTRICITY": 0.0012079, "INCLINATION": 86.3832, "RA_OF_ASC_NODE": 70.626, "ARG_OF_PERICENTER": 272.7553, "MEAN_ANOMALY": 208.7294, "EPHEMERIS_TYPE": 0, "CLASSIFICATION_TYPE": "U", "NORAD_CAT_ID": 33886, "ELEMENT_SET_NO": 999, "REV_AT_EPOCH": 87936, "BSTAR": 0.0004008, "MEAN_MOTION_DOT": 1.185e-05, "MEAN_MOTION_DDOT": 0}, "tle": {"line1": "1 33886U 97051BF  25338.66744405  .00001185  00000+0  40080-3 0  9996", "line2": "2 33886  86.3832  70.6260 0012079 272.7553 208.7294 14.36036840879361"}}, "geometry": {"type": "Point", "coordinates": [70.92339907160364, 8.207782210903988]}}, {"type": "Feature", "properties": {"norad_id": 33887, "name": "IRIDIUM 33 DEB", "group": "iridium-33-debris", "lat": -85.41464301928711, "lon": -47.0395503593348, "alt_km": 772.3305349668126, "timestamp": "2025-12-05T04:52:15.675509+00:00", "meta": {"OBJECT_NAME": "IRIDIUM 33 DEB", "OBJECT_ID": "1997-051BG", "EPOCH": "2025-12-04T02:49:23.956896", "MEAN_MOTION": 14.37209414, "ECCENTRICITY": 0.00040371, "INCLINATION": 86.3051, "RA_OF_ASC_NODE": 7.1078, "ARG_OF_PERICENTER": 267.9412, "MEAN_ANOMALY": 152.9243, "EPHEMERIS_TYPE": 0, "CLASSIFICATION_TYPE": "U", "NORAD_CAT_ID": 33887, "ELEMENT_SET_NO": 999, "REV_AT_EPOCH": 88041, "BSTAR": 0.00026791584, "MEAN_MOTION_DOT": 8.17e-06, "MEAN_MOTION_DDOT": 0}, "tle": {"line1": "1 33887U 97051BG  25338.11763839  .00000817  00000+0  26792-3 0  9994", "line2": "2 33887  86.3051   7.1078 0004037 267.9412 152.9243 14.37209414880414"}}, "geometry": {"type": "Point", "coordinates": [-47.0395503593348, -85.41464301928711]}}, {"type": "Feature", "properties": {"norad_id": 33953, "name": "IRIDIUM 33 DEB", "group": "iridium-33-debris", "lat": -1.056867973075254, "lon": 56.98344834112056, "alt_km": 719.7171924448357, "timestamp": "2025-12-05T04:52:15.675518+00:00", "meta": {"OBJECT_NAME": "IRIDIUM 33 DEB", "OBJECT_ID": "1997-051BN", "EPOCH": "2025-12-04T16:22:27.124032", "MEAN_MOTION": 14.55195443, "ECCENTRICITY": 0.0018538, "INCLINATION": 86.3854, "RA_OF_ASC_NODE": 57.2761, "ARG_OF_PERICENTER": 127.3963, "MEAN_ANOMALY": 25.7835, "EPHEMERIS_TYPE": 0, "CLASSIFICATION_TYPE": "U", "NORAD_CAT_ID": 33953, "ELEMENT_SET_NO": 999, "REV_AT_EPOCH": 88186, "BSTAR": 0.003084, "MEAN_MOTION_DOT": 0.00013398, "MEAN_MOTION_DDOT": 0}, "tle": {"line1": "1 33953U 97051BN  25338.68225838  .00013398  00000+0  30840-2 0  9998", "line2": "2 33953  86.3854  57.2761 0018538 127.3963  25.7835 14.55195443881865"}}, "geometry": {"type": "Point", "coordinates": [56.98344834112056, -1.056867973075254]}}, {"type": "Feature", "properties": {"norad_id": 33960, "name": "IRIDIUM 33 DEB", "group": "iridium-33-debris", "lat": 80.39087064093854, "lon": -44.16167557852818, "alt_km": 602.6440942386907, "timestamp": "2025-12-05T04:52:15.675528+00:00", "meta": {"OBJECT_NAME": "IRIDIUM 33 DEB", "OBJECT_ID": "1997-051BV", "EPOCH": "2025-12-04T08:00:50.814144", "MEAN_MOTION": 14.84493479, "ECCENTRICITY": 0.0007044, "INCLINATION": 86.2531, "RA_OF_ASC_NODE": 293.4746, "ARG_OF_PERICENTER": 74.0008, "MEAN_ANOMALY": 45.7445, "EPHEMERIS_TYPE": 0, "CLASSIFICATION_TYPE": "U", "NORAD_CAT_ID": 33960, "ELEMENT_SET_NO": 999, "REV_AT_EPOCH": 88742, "BSTAR": 0.0078776, "MEAN_MOTION_DOT": 0.00066968, "MEAN_MOTION_DDOT": 0}, "tle": {"line1": "1 33960U 97051BV  25338.33392146  .00066968  00000+0  78776-2 0  9996", "line2": "2 33960  86.2531 293.4746 0007044  74.0008  45.7445 14.84493479887428"}}, "geometry": {"type": "Point", "coordinates": [-44.16167557852818, 80.39087064093854]}}, {"type": "Feature", "properties": {"norad_id": 33966, "name": "IRIDIUM 33 DEB", "group": "iridium-33-debris", "lat": -79.72452774660087, "lon": 28.9022083966867, "alt_km": 732.574119740987, "timestamp": "2025-12-05T04:52:15.675538+00:00", "meta": {"OBJECT_NAME": "IRIDIUM 33 DEB", "OBJECT_ID": "1997-051CB", "EPOCH": "2025-12-04T16:31:44.023008", "MEAN_MOTION": 14.49541342, "ECCENTRICITY": 0.0006513, "INCLINATION": 86.3934, "RA_OF_ASC_NODE": 49.4821, "ARG_OF_PERICENTER": 216.9003, "MEAN_ANOMALY": 260.834, "EPHEMERIS_TYPE": 0, "CLASSIFICATION_TYPE": "U", "NORAD_CAT_ID": 33966, "ELEMENT_SET_NO": 999, "REV_AT_EPOCH": 88325, "BSTAR": 0.0013104, "MEAN_MOTION_DOT": 5.045e-05, "MEAN_MOTION_DDOT": 0}, "tle": {"line1": "1 33966U 97051CB  25338.68870397  .00005045  00000+0  13104-2 0  9992", "line2": "2 33966  86.3934  49.4821 0006513 216.9003 260.8340 14.49541342883252"}}, "geometry": {"type": "Point", "coordinates": [28.9022083966867, -79.72452774660087]}}, {"type": "Feature", "properties": {"norad_id": 34071, "name": "IRIDIUM 33 DEB", "group": "iridium-33-debris", "lat": -10.669224758491218, "lon": 20.41478340675184, "alt_km": 736.9674947539697, "timestamp": "2025-12-05T04:52:15.675547+00:00", "meta": {"OBJECT_NAME": "IRIDIUM 33 DEB", "OBJECT_ID": "1997-051CE", "EPOCH": "2025-12-04T15:39:54.142272", "MEAN_MOTION": 14.49409257, "ECCENTRICITY": 0.0009544, "INCLINATION": 86.3464, "RA_OF_ASC_NODE": 21.3435, "ARG_OF_PERICENTER": 129.5032, "MEAN_ANOMALY": 230.7017, "EPHEMERIS_TYPE": 0, "CLASSIFICATION_TYPE": "U", "NORAD_CAT_ID": 34071, "ELEMENT_SET_NO": 999, "REV_AT_EPOCH": 88217, "BSTAR": 0.0013812, "MEAN_MOTION_DOT": 5.304e-05, "MEAN_MOTION_DDOT": 0}, "tle": {"line1": "1 34071U 97051CE  25338.65270998  .00005304  00000+0  13812-2 0  9992", "line2": "2 34071  86.3464  21.3435 0009544 129.5032 230.7017 14.49409257882171"}}, "geometry": {"type": "Point", "coordinates": [20.41478340675184, -10.669224758491218]}}]}